NORAD_CAT_ID,OBJECT_NAME,OBJECT_TYPE,EPOCH,MEAN_MOTION,ECCENTRICITY,INCLINATION,RA_OF_ASC_NODE,ARG_OF_PERICENTER,MEAN_ANOMALY,BSTAR,MEAN_MOTION_DOT,MEAN_MOTION_DDOT,TLE_LINE0,TLE_LINE1,TLE_LINE2,SEMIMAJOR_AXIS,PERIOD,APOGEE,PERIGEE,DECAYED
52585.0,STARLINK-3906,PAYLOAD,2022-10-07 09:00:34,15.08842698,0.0002021999999999,53.2186,327.5113,46.7716,313.3445,0.00028527,4.255e-05,0.0,0 STARLINK-3906,1 52585U 22051BB  22280.37539741  .00004255  00000-0  28527-3 0  9991,2 52585  53.2186 327.5113 0002022  46.7716 313.3445 15.08842698 23055,6917.871999999999,95.437,541.136,538.3380000000002,0.0
52585.0,STARLINK-3906,PAYLOAD,2022-10-07 10:35:57,15.08844093,0.0002024,53.2186,327.214,46.7481,313.368,0.00030822,4.621e-05,0.0,0 STARLINK-3906,1 52585U 22051BB  22280.44163706  .00004621  00000-0  30822-3 0  9991,2 52585  53.2186 327.2140 0002024  46.7481 313.3680 15.08844093 22997,6917.868,95.437,541.133,538.3330000000002,0.0
52585.0,STARLINK-3906,PAYLOAD,2022-10-07 20:08:16,15.08838823,0.0002053,53.2184,325.4296,46.9151,313.2013,0.00014011,1.942e-05,0.0,0 STARLINK-3906,1 52585U 22051BB  22280.83907845  .00001942  00000-0  14011-3 0  9999,2 52585  53.2184 325.4296 0002053  46.9151 313.2013 15.08838823 23056,6917.884,95.438,541.169,538.3290000000002,0.0
52585.0,STARLINK-3906,PAYLOAD,2022-10-08 04:05:12,15.08835639,0.0001816,53.218,323.9432,44.5155,315.5983,-2.0641e-05,-6.17e-06,0.0,0 STARLINK-3906,1 52585U 22051BB  22281.17027860 -.00000617  00000-0 -20641-4 0  9994,2 52585  53.2180 323.9432 0001816  44.5155 315.5983 15.08835639 23177,6917.894,95.438,541.015,538.502,0.0
52585.0,STARLINK-3906,PAYLOAD,2022-10-08 10:26:44,15.08836861,0.0001747,53.2181,322.7535,46.7396,313.3742,3.5296e-05,2.74e-06,0.0,0 STARLINK-3906,1 52585U 22051BB  22281.43524030  .00000274  00000-0  35296-4 0  9993,2 52585  53.2181 322.7535 0001747  46.7396 313.3742 15.08836861 23147,6917.89,95.438,540.964,538.5459999999998,0.0
52585.0,STARLINK-3906,PAYLOAD,2022-10-08 19:59:03,15.08837419,0.0001754999999999,53.2181,320.9691,46.5526,313.5612,6.1056e-06,-1.91e-06,0.0,0 STARLINK-3906,1 52585U 22051BB  22281.83268200 -.00000191  00000-0  61056-5 0  9994,2 52585  53.2181 320.9691 0001755  46.5526 313.5612 15.08837419 23207,6917.888000000001,95.438,540.967,538.539,0.0
52585.0,STARLINK-3906,PAYLOAD,2022-10-09 10:17:32,15.08837733,0.0002256999999999,53.2179,318.2943,40.5412,319.5748,6.8462e-05,8.01e-06,0.0,0 STARLINK-3906,1 52585U 22051BB  22282.42884502  .00000801  00000-0  68462-4 0  9993,2 52585  53.2179 318.2943 0002257  40.5412 319.5748 15.08837733 23362,6917.887,95.438,541.314,538.191,0.0
52585.0,STARLINK-3906,PAYLOAD,2022-10-09 19:49:50,15.08845614,0.0001896,53.2175,316.5092,46.00100000000001,314.1138,0.00017668,2.525e-05,0.0,0 STARLINK-3906,1 52585U 22051BB  22282.82628088  .00002525  00000-0  17668-3 0  9998,2 52585  53.2175 316.5092 0001896  46.0010 314.1138 15.08845614 23357,6917.863,95.437,541.04,538.4169999999998,0.0
52585.0,STARLINK-3906,PAYLOAD,2022-10-10 11:43:42,15.08839675,0.0001818,53.2173,313.5358,44.9538,315.1601,0.00016686,2.368e-05,0.0,0 STARLINK-3906,1 52585U 22051BB  22283.48868453  .00002368  00000-0  16686-3 0  9997,2 52585  53.2173 313.5358 0001818  44.9538 315.1601 15.08839675 23528,6917.880999999999,95.438,541.004,538.489,0.0
52585.0,STARLINK-3906,PAYLOAD,2022-10-10 19:40:38,15.08830321,0.0001851999999999,53.2168,312.0485,46.25100000000001,313.8635,-1.3615e-05,-5.05e-06,0.0,0 STARLINK-3906,1 52585U 22051BB  22283.81988932 -.00000505  00000-0 -13615-4 0  9992,2 52585  53.2168 312.0485 0001852  46.2510 313.8635 15.08830321 23576,6917.91,95.438,541.056,538.494,0.0
52585.0,STARLINK-3906,PAYLOAD,2022-10-11 03:37:33,15.08841174,0.0001931,53.2171,310.5621,39.2562,320.857,8.6813e-05,1.094e-05,0.0,0 STARLINK-3906,1 52585U 22051BB  22284.15108594  .00001094  00000-0  86813-4 0  9990,2 52585  53.2171 310.5621 0001931  39.2562 320.8570 15.08841174 23622,6917.877,95.437,541.078,538.406,0.0
52585.0,STARLINK-3906,PAYLOAD,2022-10-11 11:34:30,15.08827918,0.0002059,53.2174,309.0763,38.2639,321.8499,-1.2415e-05,-4.86e-06,0.0,0 STARLINK-3906,1 52585U 22051BB  22284.48229532 -.00000486  00000-0 -12415-4 0  9995,2 52585  53.2174 309.0763 0002059  38.2639 321.8499 15.08827918 23600,6917.917,95.438,541.207,538.3580000000002,0.0
52585.0,STARLINK-3906,PAYLOAD,2022-10-12 08:14:31,15.08838493,0.0001875,53.2173,305.2094,42.1752,317.9384,0.00011829,1.595e-05,0.0,0 STARLINK-3906,1 52585U 22051BB  22285.34341546  .00001595  00000-0  11829-3 0  9998,2 52585  53.2173 305.2094 0001875  42.1752 317.9384 15.08838493 23732,6917.885,95.438,541.047,538.453,0.0
52585.0,STARLINK-3906,PAYLOAD,2022-10-12 20:57:36,15.08837755,0.0001916999999999,53.2172,302.8309,40.7871,319.3264,0.00023281,3.419e-05,0.0,0 STARLINK-3906,1 52585U 22051BB  22285.87333822  .00003419  00000-0  23281-3 0  9996,2 52585  53.2172 302.8309 0001917  40.7871 319.3264 15.08837755 23818,6917.887,95.438,541.078,538.4259999999998,0.0
52585.0,STARLINK-3906,PAYLOAD,2022-10-13 11:16:04,15.0883399,0.0001858,53.2171,300.1545,42.9596,317.1541,6.3234e-05,7.18e-06,0.0,0 STARLINK-3906,1 52585U 22051BB  22286.46950147  .00000718  00000-0  63234-4 0  9999,2 52585  53.2171 300.1545 0001858  42.9596 317.1541 15.08833990 23903,6917.899,95.438,541.049,538.4780000000002,0.0
52585.0,STARLINK-3906,PAYLOAD,2022-10-13 12:51:28,15.08831966,0.0001958,53.217,299.8573,40.7981,319.3157,0.00014374,2e-05,0.0,0 STARLINK-3906,1 52585U 22051BB  22286.53574342  .00002000  00000-0  14374-3 0  9992,2 52585  53.2170 299.8573 0001958  40.7981 319.3157 15.08831966 23988,6917.905,95.438,541.124,538.415,0.0
52585.0,STARLINK-3906,PAYLOAD,2022-10-14 06:20:42,15.08848119,0.0001868,53.2171,296.5858,42.9957,317.118,0.00024191,3.565e-05,0.0,0 STARLINK-3906,1 52585U 22051BB  22287.26437597  .00003565  00000-0  24191-3 0  9998,2 52585  53.2171 296.5858 0001868  42.9957 317.1180 15.08848119 24099,6917.856,95.437,541.013,538.428,0.0
52585.0,STARLINK-3906,PAYLOAD,2022-10-14 11:06:51,15.08844754,0.0001881,53.2173,295.6937,43.6132,316.5008,0.00013262,1.823e-05,0.0,0 STARLINK-3906,1 52585U 22051BB  22287.46309726  .00001823  00000-0  13262-3 0  9994,2 52585  53.2173 295.6937 0001881  43.6132 316.5008 15.08844754 24056,6917.866,95.437,541.0319999999998,538.43,0.0
52585.0,STARLINK-3906,PAYLOAD,2022-10-14 12:42:14,15.08846284,0.0001889999999999,53.2172,295.3962,43.6187,316.4955,0.00014962,2.094e-05,0.0,0 STARLINK-3906,1 52585U 22051BB  22287.52933653  .00002094  00000-0  14962-3 0  9992,2 52585  53.2172 295.3962 0001890  43.6187 316.4955 15.08846284 24061,6917.861,95.437,541.034,538.419,0.0
52585.0,STARLINK-3906,PAYLOAD,2022-10-15 12:33:01,15.08836158,0.0002189,53.2172,290.9366,41.957,318.159,-8.5937e-05,-1.656e-05,0.0,0 STARLINK-3906,1 52585U 22051BB  22288.52293753 -.00001656  00000-0 -85937-4 0  9999,2 52585  53.2172 290.9366 0002189  41.9570 318.1590 15.08836158 24286,6917.892,95.438,541.271,538.243,0.0
52585.0,STARLINK-3906,PAYLOAD,2022-10-16 10:48:26,15.08831013,0.0001943999999999,53.2172,286.7727,40.3494,319.7643,-0.00012502,-2.277e-05,0.0,0 STARLINK-3906,1 52585U 22051BB  22289.45030403 -.00002277  00000-0 -12502-3 0  9990,2 52585  53.2172 286.7727 0001944  40.3494 319.7643 15.08831013 24355,6917.908,95.438,541.118,538.428,0.0
52585.0,STARLINK-3906,PAYLOAD,2022-10-16 17:09:59,15.08819605,0.0001888,53.2173,285.5837,43.1672,316.9468,-0.00018011,-3.152e-05,0.0,0 STARLINK-3906,1 52585U 22051BB  22289.71527342 -.00003152  00000-0 -18011-3 0  9996,2 52585  53.2173 285.5837 0001888  43.1672 316.9468 15.08819605 24460,6917.943,95.439,541.114,538.502,0.0
52585.0,STARLINK-3906,PAYLOAD,2022-10-17 04:17:41,15.08828765,0.000192,53.2174,283.5026,41.2934,318.8203,-7.2052e-06,-4.03e-06,0.0,0 STARLINK-3906,1 52585U 22051BB  22290.17895307 -.00000403  00000-0 -72052-5 0  9990,2 52585  53.2174 283.5026 0001920  41.2934 318.8203 15.08828765 24539,6917.915,95.438,541.1080000000002,538.451,0.0
52585.0,STARLINK-3906,PAYLOAD,2022-10-17 10:39:14,15.08832971,0.0001898,53.2173,282.3126,43.6235,316.4907,8.2002e-05,1.017e-05,0.0,0 STARLINK-3906,1 52585U 22051BB  22290.44391316  .00001017  00000-0  82002-4 0  9996,2 52585  53.2173 282.3126 0001898  43.6235 316.4907 15.08832971 24506,6917.901999999999,95.438,541.08,538.4540000000002,0.0
52585.0,STARLINK-3906,PAYLOAD,2022-10-18 05:43:51,15.08847147,0.0001916,53.2173,278.7443,44.0274,316.0871,0.00044295,6.77e-05,0.0,0 STARLINK-3906,1 52585U 22051BB  22291.23879024  .00006770  00000-0  44295-3 0  9993,2 52585  53.2173 278.7443 0001916  44.0274 316.0871 15.08847147 24693,6917.859,95.437,541.049,538.398,0.0
52585.0,STARLINK-3906,PAYLOAD,2022-10-18 10:30:01,15.08843068,0.0001995,53.2169,277.8523,43.5682,316.5467,0.00037391,5.668e-05,0.0,0 STARLINK-3906,1 52585U 22051BB  22291.43751503  .00005668  00000-0  37391-3 0  9990,2 52585  53.2169 277.8523 0001995  43.5682 316.5467 15.08843068 24729,6917.871,95.437,541.116,538.356,0.0
52585.0,STARLINK-3906,PAYLOAD,2022-10-18 16:51:33,15.08851608,0.0001988,53.2167,276.663,43.3458,316.769,0.00047473,7.278e-05,0.0,0 STARLINK-3906,1 52585U 22051BB  22291.70247214  .00007278  00000-0  47473-3 0  9990,2 52585  53.2167 276.6630 0001988  43.3458 316.7690 15.08851608 24699,6917.845,95.437,541.085,538.335,0.0
52585.0,STARLINK-3906,PAYLOAD,2022-10-19 10:20:47,15.08848415,0.0001909,53.217,273.3924,42.8421,317.272,0.00019051,2.746e-05,0.0,0 STARLINK-3906,1 52585U 22051BB  22292.43110989  .00002746  00000-0  19051-3 0  9995,2 52585  53.2170 273.3924 0001909  42.8421 317.2720 15.08848415 24805,6917.855,95.437,541.04,538.399,0.0
52585.0,STARLINK-3906,PAYLOAD,2022-10-20 05:25:24,15.08852764,0.0001898,53.2169,269.8236,41.0233,319.0902,0.00018444,2.649e-05,0.0,0 STARLINK-3906,1 52585U 22051BB  22293.22598315  .00002649  00000-0  18444-3 0  9993,2 52585  53.2169 269.8236 0001898  41.0233 319.0902 15.08852764 24992,6917.840999999999,95.437,541.019,538.393,0.0
